start=new Date('2023-02-10T00:00:00.000Z').valueOf();
sats=[{"CLASSIFICATION_TYPE":"U","OBJECT_NAME":"STARLINK-4344","SITE":"AFWTR","INCLINATION":"97.6544","PERIOD":"95.919","OBJECT_TYPE":"PAYLOAD","GP_ID":"224959911","LAUNCH_DATE":"2022-07-11","RA_OF_ASC_NODE":"223.6911","ECCENTRICITY":"0.00021110","TLE_LINE1":"1 53072U 22077AF  23040.77829689  .00002762  00000-0  21950-3 0  9997","APOAPSIS":"564.466","DECAY_DATE":null,"MEAN_MOTION":"15.01263508","MEAN_MOTION_DDOT":"0.0000000000000","REF_FRAME":"TEME","OBJECT_ID":"2022-077AF","CENTER_NAME":"EARTH","PERIAPSIS":"561.536","SEMIMAJOR_AXIS":"6941.136","COUNTRY_CODE":"US","MEAN_ELEMENT_THEORY":"SGP4","FILE":"3783241","MEAN_MOTION_DOT":"0.00002762","TIME_SYSTEM":"UTC","TLE_LINE2":"2 53072  97.6544 223.6911 0002111  90.7468 269.3998 15.01263508 32290","ELEMENT_SET_NO":"999","RCS_SIZE":"LARGE","BSTAR":"0.00021950000000","EPHEMERIS_TYPE":"0","NORAD_CAT_ID":"53072","REV_AT_EPOCH":"3229","MEAN_ANOMALY":"269.3998","ARG_OF_PERICENTER":"90.7468","EPOCH":"2023-02-09T18:40:44.851296"},{"CENTER_NAME":"EARTH","PERIAPSIS":"561.993","REF_FRAME":"TEME","MEAN_MOTION_DDOT":"0.0000000000000","OBJECT_ID":"2022-077AG","MEAN_MOTION_DOT":"0.00000065","TLE_LINE2":"2 53073  97.6544 223.7519 0001444  85.8783 274.2606 15.01265271 32301","TIME_SYSTEM":"UTC","SEMIMAJOR_AXIS":"6941.131","COUNTRY_CODE":"US","MEAN_ELEMENT_THEORY":"SGP4","FILE":"3783241","EPHEMERIS_TYPE":"0","NORAD_CAT_ID":"53073","REV_AT_EPOCH":"3230","MEAN_ANOMALY":"274.2606","BSTAR":"0.00000961820000","RCS_SIZE":"LARGE","ELEMENT_SET_NO":"999","EPOCH":"2023-02-09T20:06:03.677184","ARG_OF_PERICENTER":"85.8783","CLASSIFICATION_TYPE":"U","OBJECT_NAME":"STARLINK-4346","SITE":"AFWTR","PERIOD":"95.919","INCLINATION":"97.6544","OBJECT_TYPE":"PAYLOAD","GP_ID":"224959168","RA_OF_ASC_NODE":"223.7519","ECCENTRICITY":"0.00014440","LAUNCH_DATE":"2022-07-11","DECAY_DATE":null,"MEAN_MOTION":"15.01265271","TLE_LINE1":"1 53073U 22077AG  23040.83754256  .00000065  00000-0  96182-5 0  9997","APOAPSIS":"563.998"},{"CLASSIFICATION_TYPE":"U","OBJECT_NAME":"STARLINK-4310","INCLINATION":"97.6537","PERIOD":"95.920","SITE":"AFWTR","GP_ID":"224959919","OBJECT_TYPE":"PAYLOAD","RA_OF_ASC_NODE":"223.6905","ECCENTRICITY":"0.00018550","LAUNCH_DATE":"2022-07-11","MEAN_MOTION":"15.01258642","DECAY_DATE":null,"APOAPSIS":"564.304","TLE_LINE1":"1 53074U 22077AH  23040.77484061 -.00000290  00000-0 -18008-4 0  9997","PERIAPSIS":"561.728","CENTER_NAME":"EARTH","OBJECT_ID":"2022-077AH","REF_FRAME":"TEME","MEAN_MOTION_DDOT":"0.0000000000000","TLE_LINE2":"2 53074  97.6537 223.6905 0001855  95.2599 264.8837 15.01258642 32291","TIME_SYSTEM":"UTC","MEAN_MOTION_DOT":"-0.00000290","COUNTRY_CODE":"US","SEMIMAJOR_AXIS":"6941.151","FILE":"3783241","MEAN_ELEMENT_THEORY":"SGP4","REV_AT_EPOCH":"3229","NORAD_CAT_ID":"53074","EPHEMERIS_TYPE":"0","MEAN_ANOMALY":"264.8837","BSTAR":"-0.00001800800000","RCS_SIZE":"LARGE","ELEMENT_SET_NO":"999","EPOCH":"2023-02-09T18:35:46.228704","ARG_OF_PERICENTER":"95.2599"},{"REF_FRAME":"TEME","MEAN_MOTION_DDOT":"0.0000000000000","OBJECT_ID":"2022-077AJ","CENTER_NAME":"EARTH","PERIAPSIS":"562.017","MEAN_ELEMENT_THEORY":"SGP4","FILE":"3783241","SEMIMAJOR_AXIS":"6941.131","COUNTRY_CODE":"US","MEAN_MOTION_DOT":"-0.00000714","TIME_SYSTEM":"UTC","TLE_LINE2":"2 53075  97.6512 223.6811 0001410  88.5784 271.5602 15.01265258 32295","ELEMENT_SET_NO":"999","RCS_SIZE":"LARGE","BSTAR":"-0.00005102300000","MEAN_ANOMALY":"271.5602","EPHEMERIS_TYPE":"0","NORAD_CAT_ID":"53075","REV_AT_EPOCH":"3229","ARG_OF_PERICENTER":"88.5784","EPOCH":"2023-02-09T18:25:06.053088","SITE":"AFWTR","PERIOD":"95.919","INCLINATION":"97.6512","CLASSIFICATION_TYPE":"U","OBJECT_NAME":"STARLINK-4348","OBJECT_TYPE":"PAYLOAD","GP_ID":"224959664","LAUNCH_DATE":"2022-07-11","ECCENTRICITY":"0.00014100","RA_OF_ASC_NODE":"223.6811","TLE_LINE1":"1 53075U 22077AJ  23040.76743117 -.00000714  00000-0 -51023-4 0  9992","APOAPSIS":"563.974","DECAY_DATE":null,"MEAN_MOTION":"15.01265258"},{"CENTER_NAME":"EARTH","PERIAPSIS":"562.320","MEAN_MOTION_DDOT":"0.0000000000000","REF_FRAME":"TEME","OBJECT_ID":"2022-077AK","MEAN_MOTION_DOT":"0.00000362","TIME_SYSTEM":"UTC","TLE_LINE2":"2 53076  97.6546 223.7540 0000987  82.4072 277.7264 15.01262147 32302","SEMIMAJOR_AXIS":"6941.140","COUNTRY_CODE":"US","FILE":"3783241","MEAN_ELEMENT_THEORY":"SGP4","EPHEMERIS_TYPE":"0","NORAD_CAT_ID":"53076","REV_AT_EPOCH":"3230","MEAN_ANOMALY":"277.7264","RCS_SIZE":"LARGE","ELEMENT_SET_NO":"999","BSTAR":"0.00003274500000","EPOCH":"2023-02-09T20:08:43.704672","ARG_OF_PERICENTER":"82.4072","OBJECT_NAME":"STARLINK-4347","CLASSIFICATION_TYPE":"U","SITE":"AFWTR","INCLINATION":"97.6546","PERIOD":"95.919","OBJECT_TYPE":"PAYLOAD","GP_ID":"224960410","ECCENTRICITY":"0.00009870","RA_OF_ASC_NODE":"223.7540","LAUNCH_DATE":"2022-07-11","DECAY_DATE":null,"MEAN_MOTION":"15.01262147","TLE_LINE1":"1 53076U 22077AK  23040.83939473  .00000362  00000-0  32745-4 0  9990","APOAPSIS":"563.690"},{"RA_OF_ASC_NODE":"223.6772","ECCENTRICITY":"0.00010840","LAUNCH_DATE":"2022-07-11","DECAY_DATE":null,"MEAN_MOTION":"15.01261592","TLE_LINE1":"1 53077U 22077AL  23040.76533590 -.00002527  00000-0 -19222-3 0  9994","APOAPSIS":"563.759","CLASSIFICATION_TYPE":"U","OBJECT_NAME":"STARLINK-4315","SITE":"AFWTR","INCLINATION":"97.6505","PERIOD":"95.919","OBJECT_TYPE":"PAYLOAD","GP_ID":"224958669","EPHEMERIS_TYPE":"0","NORAD_CAT_ID":"53077","REV_AT_EPOCH":"3229","MEAN_ANOMALY":"255.1656","RCS_SIZE":"LARGE","ELEMENT_SET_NO":"999","BSTAR":"-0.00019222000000","EPOCH":"2023-02-09T18:22:05.021760","ARG_OF_PERICENTER":"104.9689","CENTER_NAME":"EARTH","PERIAPSIS":"562.255","REF_FRAME":"TEME","MEAN_MOTION_DDOT":"0.0000000000000","OBJECT_ID":"2022-077AL","MEAN_MOTION_DOT":"-0.00002527","TIME_SYSTEM":"UTC","TLE_LINE2":"2 53077  97.6505 223.6772 0001084 104.9689 255.1656 15.01261592 32293","SEMIMAJOR_AXIS":"6941.142","COUNTRY_CODE":"US","MEAN_ELEMENT_THEORY":"SGP4","FILE":"3783241"},{"MEAN_MOTION":"15.01262967","DECAY_DATE":null,"APOAPSIS":"563.886","TLE_LINE1":"1 53078U 22077AM  23040.83569131 -.00000112  00000-0 -41024-5 0  9998","RA_OF_ASC_NODE":"223.7492","ECCENTRICITY":"0.00012720","LAUNCH_DATE":"2022-07-11","GP_ID":"224931229","OBJECT_TYPE":"PAYLOAD","CLASSIFICATION_TYPE":"U","OBJECT_NAME":"STARLINK-4322","INCLINATION":"97.6543","PERIOD":"95.919","SITE":"AFWTR","EPOCH":"2023-02-09T20:03:23.729184","ARG_OF_PERICENTER":"83.4378","REV_AT_EPOCH":"3288","EPHEMERIS_TYPE":"0","NORAD_CAT_ID":"53078","MEAN_ANOMALY":"276.6991","ELEMENT_SET_NO":"999","RCS_SIZE":"MEDIUM","BSTAR":"-0.00000410240000","TLE_LINE2":"2 53078  97.6543 223.7492 0001272  83.4378 276.6991 15.01262967 32883","TIME_SYSTEM":"UTC","MEAN_MOTION_DOT":"-0.00000112","COUNTRY_CODE":"US","SEMIMAJOR_AXIS":"6941.138","FILE":"3782981","MEAN_ELEMENT_THEORY":"SGP4","PERIAPSIS":"562.120","CENTER_NAME":"EARTH","OBJECT_ID":"2022-077AM","MEAN_MOTION_DDOT":"0.0000000000000","REF_FRAME":"TEME"},{"EPHEMERIS_TYPE":"0","NORAD_CAT_ID":"53079","REV_AT_EPOCH":"3230","MEAN_ANOMALY":"258.5565","RCS_SIZE":"LARGE","BSTAR":"0.00004762500000","ELEMENT_SET_NO":"999","EPOCH":"2023-02-09T19:55:23.656224","ARG_OF_PERICENTER":"101.5779","CENTER_NAME":"EARTH","PERIAPSIS":"562.263","MEAN_MOTION_DDOT":"0.0000000000000","REF_FRAME":"TEME","OBJECT_ID":"2022-077AN","MEAN_MOTION_DOT":"0.00000553","TIME_SYSTEM":"UTC","TLE_LINE2":"2 53079  97.6521 223.7414 0001059 101.5779 258.5565 15.01264505 32307","SEMIMAJOR_AXIS":"6941.133","COUNTRY_CODE":"US","MEAN_ELEMENT_THEORY":"SGP4","FILE":"3783241","RA_OF_ASC_NODE":"223.7414","ECCENTRICITY":"0.00010590","LAUNCH_DATE":"2022-07-11","DECAY_DATE":null,"MEAN_MOTION":"15.01264505","TLE_LINE1":"1 53079U 22077AN  23040.83013491  .00000553  00000-0  47625-4 0  9991","APOAPSIS":"563.733","CLASSIFICATION_TYPE":"U","OBJECT_NAME":"STARLINK-4327","SITE":"AFWTR","PERIOD":"95.919","INCLINATION":"97.6521","OBJECT_TYPE":"PAYLOAD","GP_ID":"224960163"},{"PERIAPSIS":"562.537","CENTER_NAME":"EARTH","OBJECT_ID":"2022-077AP","MEAN_MOTION_DDOT":"0.0000000000000","REF_FRAME":"TEME","TLE_LINE2":"2 53080  97.6532 223.7464 0000669  85.4544 274.6757 15.01263472 32306","TIME_SYSTEM":"UTC","MEAN_MOTION_DOT":"0.00000665","FILE":"3783241","MEAN_ELEMENT_THEORY":"SGP4","COUNTRY_CODE":"US","SEMIMAJOR_AXIS":"6941.136","MEAN_ANOMALY":"274.6757","REV_AT_EPOCH":"3230","EPHEMERIS_TYPE":"0","NORAD_CAT_ID":"53080","ELEMENT_SET_NO":"999","RCS_SIZE":"LARGE","BSTAR":"0.00005637600000","EPOCH":"2023-02-09T20:00:43.617024","ARG_OF_PERICENTER":"85.4544","PERIOD":"95.919","INCLINATION":"97.6532","SITE":"AFWTR","OBJECT_NAME":"STARLINK-4330","CLASSIFICATION_TYPE":"U","GP_ID":"224959912","OBJECT_TYPE":"PAYLOAD","RA_OF_ASC_NODE":"223.7464","ECCENTRICITY":"0.00006690","LAUNCH_DATE":"2022-07-11","MEAN_MOTION":"15.01263472","DECAY_DATE":null,"APOAPSIS":"563.466","TLE_LINE1":"1 53080U 22077AP  23040.83383816  .00000665  00000-0  56376-4 0  9991"},{"CLASSIFICATION_TYPE":"U","OBJECT_NAME":"STARLINK-4326","SITE":"AFWTR","INCLINATION":"97.6501","PERIOD":"95.919","OBJECT_TYPE":"PAYLOAD","GP_ID":"224959169","RA_OF_ASC_NODE":"223.6644","ECCENTRICITY":"0.00013000","LAUNCH_DATE":"2022-07-11","DECAY_DATE":null,"MEAN_MOTION":"15.01267076","TLE_LINE1":"1 53081U 22077AQ  23040.76002378  .00000024  00000-0  64156-5 0  9990","APOAPSIS":"563.892","CENTER_NAME":"EARTH","PERIAPSIS":"562.088","REF_FRAME":"TEME","MEAN_MOTION_DDOT":"0.0000000000000","OBJECT_ID":"2022-077AQ","MEAN_MOTION_DOT":"0.00000024","TLE_LINE2":"2 53081  97.6501 223.6644 0001300 118.4039 241.7316 15.01267076 32299","TIME_SYSTEM":"UTC","SEMIMAJOR_AXIS":"6941.125","COUNTRY_CODE":"US","MEAN_ELEMENT_THEORY":"SGP4","FILE":"3783241","EPHEMERIS_TYPE":"0","NORAD_CAT_ID":"53081","REV_AT_EPOCH":"3229","MEAN_ANOMALY":"241.7316","BSTAR":"0.00000641560000","RCS_SIZE":"LARGE","ELEMENT_SET_NO":"999","EPOCH":"2023-02-09T18:14:26.054592","ARG_OF_PERICENTER":"118.4039"}];
